[{"OBJECT_NAME":"SAOCOM 1A","OBJECT_ID":"2018-076A","EPOCH":"2026-03-31T20:04:28.443648","MEAN_MOTION":14.82166204,"ECCENTRICITY":0.0001486,"INCLINATION":97.8902,"RA_OF_ASC_NODE":278.6969,"ARG_OF_PERICENTER":85.9756,"MEAN_ANOMALY":274.1627,"EPHEMERIS_TYPE":0,"CLASSIFICATION_TYPE":"U","NORAD_CAT_ID":43641,"ELEMENT_SET_NO":999,"REV_AT_EPOCH":40464,"BSTAR":0.00010215,"MEAN_MOTION_DOT":7.61e-6,"MEAN_MOTION_DDOT":0},{"OBJECT_NAME":"H-2A R/B","OBJECT_ID":"2018-084L","EPOCH":"2026-03-31T08:15:53.661312","MEAN_MOTION":15.42280553,"ECCENTRICITY":0.00235817,"INCLINATION":98.8701,"RA_OF_ASC_NODE":312.3741,"ARG_OF_PERICENTER":309.5031,"MEAN_ANOMALY":50.4126,"EPHEMERIS_TYPE":0,"CLASSIFICATION_TYPE":"U","NORAD_CAT_ID":43682,"ELEMENT_SET_NO":999,"REV_AT_EPOCH":40911,"BSTAR":0.00056595592,"MEAN_MOTION_DOT":0.0002453,"MEAN_MOTION_DDOT":0},{"OBJECT_NAME":"SAOCOM 1B","OBJECT_ID":"2020-059A","EPOCH":"2026-03-31T15:57:49.742784","MEAN_MOTION":14.82158868,"ECCENTRICITY":0.0001465,"INCLINATION":97.8887,"RA_OF_ASC_NODE":277.6248,"ARG_OF_PERICENTER":87.2779,"MEAN_ANOMALY":272.8602,"EPHEMERIS_TYPE":0,"CLASSIFICATION_TYPE":"U","NORAD_CAT_ID":46265,"ELEMENT_SET_NO":999,"REV_AT_EPOCH":30200,"BSTAR":6.3061e-5,"MEAN_MOTION_DOT":4.5e-6,"MEAN_MOTION_DDOT":0},{"OBJECT_NAME":"CSS (TIANHE)","OBJECT_ID":"2021-035A","EPOCH":"2026-03-31T20:22:04.014912","MEAN_MOTION":15.61775142,"ECCENTRICITY":0.0003682,"INCLINATION":41.4668,"RA_OF_ASC_NODE":73.2165,"ARG_OF_PERICENTER":84.3022,"MEAN_ANOMALY":275.8236,"EPHEMERIS_TYPE":0,"CLASSIFICATION_TYPE":"U","NORAD_CAT_ID":48274,"ELEMENT_SET_NO":999,"REV_AT_EPOCH":28107,"BSTAR":0.00031477,"MEAN_MOTION_DOT":0.00027797,"MEAN_MOTION_DDOT":0},{"OBJECT_NAME":"COSMOS 2550","OBJECT_ID":"2021-056A","EPOCH":"2026-03-31T19:38:22.581888","MEAN_MOTION":15.33833702,"ECCENTRICITY":0.0008315,"INCLINATION":67.1447,"RA_OF_ASC_NODE":333.9463,"ARG_OF_PERICENTER":269.4076,"MEAN_ANOMALY":90.6125,"EPHEMERIS_TYPE":0,"CLASSIFICATION_TYPE":"U","NORAD_CAT_ID":48865,"ELEMENT_SET_NO":999,"REV_AT_EPOCH":26685,"BSTAR":0.00023914,"MEAN_MOTION_DOT":7.685e-5,"MEAN_MOTION_DDOT":0},{"OBJECT_NAME":"CZ-2C R/B","OBJECT_ID":"2022-058K","EPOCH":"2026-03-31T14:49:13.676160","MEAN_MOTION":15.5591468,"ECCENTRICITY":0.0041358,"INCLINATION":50.1881,"RA_OF_ASC_NODE":205.3543,"ARG_OF_PERICENTER":294.9188,"MEAN_ANOMALY":64.7488,"EPHEMERIS_TYPE":0,"CLASSIFICATION_TYPE":"U","NORAD_CAT_ID":52794,"ELEMENT_SET_NO":999,"REV_AT_EPOCH":21354,"BSTAR":0.00062053,"MEAN_MOTION_DOT":0.00045391,"MEAN_MOTION_DDOT":0},{"OBJECT_NAME":"CZ-2C R/B","OBJECT_ID":"2022-132E","EPOCH":"2026-03-31T11:04:24.584160","MEAN_MOTION":15.63914432,"ECCENTRICITY":0.00169619,"INCLINATION":97.2949,"RA_OF_ASC_NODE":94.4728,"ARG_OF_PERICENTER":19.5849,"MEAN_ANOMALY":340.6058,"EPHEMERIS_TYPE":0,"CLASSIFICATION_TYPE":"U","NORAD_CAT_ID":54039,"ELEMENT_SET_NO":999,"REV_AT_EPOCH":19377,"BSTAR":0.00049554798,"MEAN_MOTION_DOT":0.0004696,"MEAN_MOTION_DDOT":0},{"OBJECT_NAME":"GSLV R/B","OBJECT_ID":"2022-138AN","EPOCH":"2026-03-31T10:44:53.509056","MEAN_MOTION":14.9691159,"ECCENTRICITY":0.00239597,"INCLINATION":87.3858,"RA_OF_ASC_NODE":159.0779,"ARG_OF_PERICENTER":75.0766,"MEAN_ANOMALY":285.3116,"EPHEMERIS_TYPE":0,"CLASSIFICATION_TYPE":"U","NORAD_CAT_ID":54149,"ELEMENT_SET_NO":999,"REV_AT_EPOCH":18718,"BSTAR":0.00030773338,"MEAN_MOTION_DOT":3.58e-5,"MEAN_MOTION_DDOT":0},{"OBJECT_NAME":"XRISM","OBJECT_ID":"2023-137A","EPOCH":"2026-03-31T11:55:47.966880","MEAN_MOTION":15.11758652,"ECCENTRICITY":0.00079152,"INCLINATION":31.0015,"RA_OF_ASC_NODE":142.5846,"ARG_OF_PERICENTER":258.4497,"MEAN_ANOMALY":101.5253,"EPHEMERIS_TYPE":0,"CLASSIFICATION_TYPE":"U","NORAD_CAT_ID":57800,"ELEMENT_SET_NO":999,"REV_AT_EPOCH":14109,"BSTAR":0.00042231762,"MEAN_MOTION_DOT":7.486e-5,"MEAN_MOTION_DDOT":0},{"OBJECT_NAME":"ACS3","OBJECT_ID":"2024-077B","EPOCH":"2026-03-31T19:27:55.873440","MEAN_MOTION":13.90657484,"ECCENTRICITY":0.0073089,"INCLINATION":97.196,"RA_OF_ASC_NODE":26.951,"ARG_OF_PERICENTER":26.4274,"MEAN_ANOMALY":334.0589,"EPHEMERIS_TYPE":0,"CLASSIFICATION_TYPE":"U","NORAD_CAT_ID":59588,"ELEMENT_SET_NO":999,"REV_AT_EPOCH":9727,"BSTAR":0.023924,"MEAN_MOTION_DOT":0.00030572,"MEAN_MOTION_DDOT":0},{"OBJECT_NAME":"HTV-X1","OBJECT_ID":"2025-241A","EPOCH":"2026-03-31T21:18:02.255904","MEAN_MOTION":15.32487751,"ECCENTRICITY":0.0007216,"INCLINATION":51.6377,"RA_OF_ASC_NODE":326.0819,"ARG_OF_PERICENTER":258.6594,"MEAN_ANOMALY":101.3577,"EPHEMERIS_TYPE":0,"CLASSIFICATION_TYPE":"U","NORAD_CAT_ID":66174,"ELEMENT_SET_NO":999,"REV_AT_EPOCH":2434,"BSTAR":5.4325e-5,"MEAN_MOTION_DOT":1.358e-5,"MEAN_MOTION_DDOT":0},{"OBJECT_NAME":"SZ-21 MODULE","OBJECT_ID":"2025-246C","EPOCH":"2026-03-31T15:29:36.301920","MEAN_MOTION":15.70295966,"ECCENTRICITY":0.0002346,"INCLINATION":41.4739,"RA_OF_ASC_NODE":68.0304,"ARG_OF_PERICENTER":217.6333,"MEAN_ANOMALY":142.4346,"EPHEMERIS_TYPE":0,"CLASSIFICATION_TYPE":"U","NORAD_CAT_ID":66515,"ELEMENT_SET_NO":999,"REV_AT_EPOCH":2152,"BSTAR":0.00036184,"MEAN_MOTION_DOT":0.00045309,"MEAN_MOTION_DDOT":0}]
