SAOCOM 1A               
1 43641U 18076A   26090.83644032  .00000761  00000+0  10215-3 0  9992
2 43641  97.8902 278.6969 0001486  85.9756 274.1627 14.82166204404642
H-2A R/B                
1 43682U 18084L   26090.34437108  .00024530  00000+0  56596-3 0  9998
2 43682  98.8701 312.3741 0023581 309.5031  50.4126 15.42280553409117
SAOCOM 1B               
1 46265U 20059A   26090.66515906  .00000450  00000+0  63061-4 0  9992
2 46265  97.8887 277.6248 0001465  87.2779 272.8602 14.82158868302007
CSS (TIANHE)            
1 48274U 21035A   26090.84865758  .00027797  00000+0  31477-3 0  9990
2 48274  41.4668  73.2165 0003682  84.3022 275.8236 15.61775142281078
COSMOS 2550             
1 48865U 21056A   26090.81831692  .00007685  00000+0  23914-3 0  9997
2 48865  67.1447 333.9463 0008315 269.4076  90.6125 15.33833702266859
CZ-2C R/B               
1 52794U 22058K   26090.61751940  .00045391  00000+0  62053-3 0  9994
2 52794  50.1881 205.3543 0041358 294.9188  64.7488 15.55914680213542
CZ-2C R/B               
1 54039U 22132E   26090.46139565  .00046960  00000+0  49555-3 0  9992
2 54039  97.2949  94.4728 0016961  19.5849 340.6058 15.63914432193777
GSLV R/B                
1 54149U 22138AN  26090.44784154  .00003580  00000+0  30773-3 0  9991
2 54149  87.3858 159.0779 0023959  75.0766 285.3116 14.96911590187187
XRISM                   
1 57800U 23137A   26090.49708295  .00007486  00000+0  42232-3 0  9997
2 57800  31.0015 142.5846 0007915 258.4497 101.5253 15.11758652141096
ACS3                    
1 59588U 24077B   26090.81106335  .00030572  00000+0  23924-1 0  9996
2 59588  97.1960  26.9510 0073089  26.4274 334.0589 13.90657484 97278
HTV-X1                  
1 66174U 25241A   26090.88752611  .00001358  00000+0  54325-4 0  9992
2 66174  51.6377 326.0819 0007216 258.6594 101.3577 15.32487751 24349
SZ-21 MODULE            
1 66515U 25246C   26090.64555905  .00045309  00000+0  36184-3 0  9993
2 66515  41.4739  68.0304 0002346 217.6333 142.4346 15.70295966 21528
